ONEWEB-0572             
1 55151U 23004M   26182.49160600 -.00000961  00000+0 -25097-2 0  9993
2 55151  87.9135   3.0192 0001905  92.0401 268.0948 13.17638992169369
ONEWEB-0573             
1 55152U 23004N   26182.45562734  .00000064  00000+0  13046-3 0  9998
2 55152  87.9175 332.6302 0002635 106.5888 253.5534 13.18687013171574
ONEWEB-0588             
1 55153U 23004P   26182.44889317  .00000079  00000+0  16652-3 0  9999
2 55153  87.9173 332.6313 0002330  90.0488 270.0911 13.18686062171576
ONEWEB-0598             
1 55154U 23004Q   26182.50404707 -.00000379  00000+0 -11063-2 0  9998
2 55154  87.8880  18.2179 0002212 106.5065 253.6307 13.11417738167779
ONEWEB-0599             
1 55155U 23004R   26182.45278066 -.00000003  00000+0 -41566-4 0  9997
2 55155  87.9132   3.0255 0001737  96.3703 263.7626 13.17649768169363
ONEWEB-0614             
1 55156U 23004S   26182.49895600 -.00000589  00000+0 -16981-2 0  9991
2 55156  87.8876  18.2273 0001919  81.1546 278.9799 13.11416540167715
ONEWEB-0616             
1 55157U 23004T   26182.49496880  .00000060  00000+0  12081-3 0  9999
2 55157  87.9135   3.0209 0001121 114.4955 245.6294 13.17649970169584
ONEWEB-0617             
1 55158U 23004U   26182.48709457 -.00000392  00000+0 -11419-2 0  9999
2 55158  87.8880  18.2215 0002156  79.9246 280.2125 13.11415871167731
ONEWEB-0618             
1 55159U 23004V   26182.21065561  .00007456  00000+0  41726-3 0  9993
2 55159  86.9089 171.9403 0009824 233.2190 126.8149 15.13258946184384
ONEWEB-0619             
1 55160U 23004W   26182.45109609  .00000021  00000+0  21362-4 0  9999
2 55160  87.9143   3.0116 0001635  77.2603 282.8711 13.17649896169472
ONEWEB-0620             
1 55161U 23004X   26182.48200546 -.00000252  00000+0 -74628-3 0  9995
2 55161  87.8873  18.2302 0002063  92.9321 267.2043 13.11414600167700
ONEWEB-0621             
1 55162U 23004Y   26182.50913448 -.00000215  00000+0 -64322-3 0  9990
2 55162  87.8889  18.2154 0001873  80.9136 279.2204 13.11417959167681
ONEWEB-0622             
1 55163U 23004Z   26182.51422748 -.00000033  00000+0 -12773-3 0  9991
2 55163  87.8890  18.2169 0002486  79.5016 280.6392 13.11417990167670
ONEWEB-0623             
1 55164U 23004AA  26182.44601626  .00000026  00000+0  33441-4 0  9994
2 55164  87.9129   3.0410 0002168  68.9331 291.2033 13.17650797169466
ONEWEB-0624             
1 55165U 23004AB  26182.44597964  .00002744  00000+0  75363-2 0  9990
2 55165  87.8951 347.7466 0001492  95.7598 264.3701 13.12917734169948
ONEWEB-0625             
1 55166U 23004AC  26182.51184362  .00000045  00000+0  83713-4 0  9995
2 55166  87.9133   3.0237 0001696  91.2569 268.8757 13.17650455169461
ONEWEB-0626             
1 55167U 23004AD  26182.50169574  .00000091  00000+0  20023-3 0  9998
2 55167  87.9133   3.0253 0002142  99.0549 261.0825 13.17648391169468
ONEWEB-0627             
1 55168U 23004AE  26182.48989552  .00000082  00000+0  17847-3 0  9992
2 55168  87.9132   3.0282 0002016  77.5912 282.5445 13.17647805169460
ONEWEB-0628             
1 55169U 23004AF  26182.50891049 -.00000671  00000+0 -19001-2 0  9998
2 55169  87.8960 347.8044 0001681  73.0086 287.1226 13.12435989169915
ONEWEB-0629             
1 55170U 23004AG  26182.46543835  .00000047  00000+0  87879-4 0  9997
2 55170  87.9129   3.0297 0001653  82.1989 277.9330 13.17648031169460
ONEWEB-0631             
1 55171U 23004AH  26182.44214893  .00000026  00000+0  33839-4 0  9999
2 55171  87.9184 332.6002 0002377  96.1001 264.0402 13.18686185171554
ONEWEB-0709             
1 55172U 23004AJ  26182.47183976  .00000111  00000+0  27808-3 0  9993
2 55172  87.8876  18.2345 0002331 108.4221 251.7160 13.11414519167743
ONEWEB-0710             
1 55173U 23004AK  26182.47976695  .00000095  00000+0  21123-3 0  9997
2 55173  87.9131   3.0218 0001974  86.5435 273.5922 13.17650585169465
ONEWEB-0711             
1 55174U 23004AL  26182.51931623  .00000209  00000+0  55460-3 0  9993
2 55174  87.8880  18.2129 0002321  72.9653 287.1729 13.11418045167712
ONEWEB-0713             
1 55175U 23004AM  26182.46167439  .00000389  00000+0  10612-2 0  9992
2 55175  87.8881  18.2260 0002064  79.5527 280.5834 13.11415217167696
ONEWEB-0715             
1 55176U 23004AN  26182.45658525  .00000537  00000+0  14792-2 0  9991
2 55176  87.8881  18.2277 0002385  98.7582 261.3817 13.11415396167736
ONEWEB-0716             
1 55177U 23004AP  26182.47301557  .00000075  00000+0  16033-3 0  9992
2 55177  87.9131   3.0259 0001658  94.1290 266.0031 13.17650741169469
ONEWEB-0717             
1 55178U 23004AQ  26182.45615917  .00000055  00000+0  10800-3 0  9993
2 55178  87.9144   3.0183 0002347  81.9532 278.1866 13.17649271169511
ONEWEB-0719             
1 55179U 23004AR  26182.46628264  .00000034  00000+0  55196-4 0  9999
2 55179  87.9141   2.9966 0001676  88.5706 271.5618 13.17650045169463
ONEWEB-0530             
1 55796U 23029A   26182.25645338  .00000116  00000+0  25420-3 0  9996
2 55796  87.9185 271.6643 0002102  87.2384 272.8990 13.20772193163000
