OBJECT_NAME,OBJECT_ID,EPOCH,MEAN_MOTION,ECCENTRICITY,INCLINATION,RA_OF_ASC_NODE,ARG_OF_PERICENTER,MEAN_ANOMALY,EPHEMERIS_TYPE,CLASSIFICATION_TYPE,NORAD_CAT_ID,ELEMENT_SET_NO,REV_AT_EPOCH,BSTAR,MEAN_MOTION_DOT,MEAN_MOTION_DDOT
ONEWEB-0572,2023-004M,2026-07-01T11:47:54.758400,13.17638992,.00019056,87.9135,3.0192,92.0401,268.0948,0,U,55151,999,16936,-.25097227E-2,-.961E-5,0
ONEWEB-0573,2023-004N,2026-07-01T10:56:06.202176,13.18687013,.00026356,87.9175,332.6302,106.5888,253.5534,0,U,55152,999,17157,.13045746E-3,.64E-6,0
ONEWEB-0588,2023-004P,2026-07-01T10:46:24.369888,13.18686062,.00023303,87.9173,332.6313,90.0488,270.0911,0,U,55153,999,17157,.16652121E-3,.79E-6,0
ONEWEB-0598,2023-004Q,2026-07-01T12:05:49.666848,13.11417738,.00022128,87.8880,18.2179,106.5065,253.6307,0,U,55154,999,16777,-.11062875E-2,-.379E-5,0
ONEWEB-0599,2023-004R,2026-07-01T10:52:00.249024,13.17649768,.00017371,87.9132,3.0255,96.3703,263.7626,0,U,55155,999,16936,-.41565682E-4,-.3E-7,0
ONEWEB-0614,2023-004S,2026-07-01T11:58:29.798400,13.11416540,.00019191,87.8876,18.2273,81.1546,278.9799,0,U,55156,999,16771,-.16980759E-2,-.589E-5,0
ONEWEB-0616,2023-004T,2026-07-01T11:52:45.304320,13.17649970,.00011211,87.9135,3.0209,114.4955,245.6294,0,U,55157,999,16958,.12081042E-3,.6E-6,0
ONEWEB-0617,2023-004U,2026-07-01T11:41:24.970848,13.11415871,.00021567,87.8880,18.2215,79.9246,280.2125,0,U,55158,999,16773,-.11419268E-2,-.392E-5,0
ONEWEB-0618,2023-004V,2026-07-01T05:03:20.644704,15.13258946,.00098244,86.9089,171.9403,233.2190,126.8149,0,U,55159,999,18438,.41725655E-3,.7456E-4,0
ONEWEB-0619,2023-004W,2026-07-01T10:49:34.702176,13.17649896,.00016353,87.9143,3.0116,77.2603,282.8711,0,U,55160,999,16947,.21362293E-4,.21E-6,0
ONEWEB-0620,2023-004X,2026-07-01T11:34:05.271744,13.11414600,.00020636,87.8873,18.2302,92.9321,267.2043,0,U,55161,999,16770,-.74628275E-3,-.252E-5,0
ONEWEB-0621,2023-004Y,2026-07-01T12:13:09.219072,13.11417959,.00018736,87.8889,18.2154,80.9136,279.2204,0,U,55162,999,16768,-.64322365E-3,-.215E-5,0
ONEWEB-0622,2023-004Z,2026-07-01T12:20:29.254272,13.11417990,.00024864,87.8890,18.2169,79.5016,280.6392,0,U,55163,999,16767,-.12772577E-3,-.33E-6,0
ONEWEB-0623,2023-004AA,2026-07-01T10:42:15.804864,13.17650797,.0002168,87.9129,3.0410,68.9331,291.2033,0,U,55164,999,16946,.33441035E-4,.26E-6,0
ONEWEB-0624,2023-004AB,2026-07-01T10:42:12.640896,13.12917734,.00014922,87.8951,347.7466,95.7598,264.3701,0,U,55165,999,16994,.75363211E-2,.2744E-4,0
ONEWEB-0625,2023-004AC,2026-07-01T12:17:03.288768,13.17650455,.00016963,87.9133,3.0237,91.2569,268.8757,0,U,55166,999,16946,.8371255E-4,.45E-6,0
ONEWEB-0626,2023-004AD,2026-07-01T12:02:26.511936,13.17648391,.00021426,87.9133,3.0253,99.0549,261.0825,0,U,55167,999,16946,.20022617E-3,.91E-6,0
ONEWEB-0627,2023-004AE,2026-07-01T11:45:26.972928,13.17647805,.00020166,87.9132,3.0282,77.5912,282.5445,0,U,55168,999,16946,.17847366E-3,.82E-6,0
ONEWEB-0628,2023-004AF,2026-07-01T12:12:49.866336,13.12435989,.00016812,87.8960,347.8044,73.0086,287.1226,0,U,55169,999,16991,-.19000538E-2,-.671E-5,0
ONEWEB-0629,2023-004AG,2026-07-01T11:10:13.873440,13.17648031,.0001653,87.9129,3.0297,82.1989,277.9330,0,U,55170,999,16946,.87879019E-4,.47E-6,0
ONEWEB-0631,2023-004AH,2026-07-01T10:36:41.667552,13.18686185,.0002377,87.9184,332.6002,96.1001,264.0402,0,U,55171,999,17155,.33839335E-4,.26E-6,0
ONEWEB-0709,2023-004AJ,2026-07-01T11:19:26.955264,13.11414519,.00023313,87.8876,18.2345,108.4221,251.7160,0,U,55172,999,16774,.27807896E-3,.111E-5,0
ONEWEB-0710,2023-004AK,2026-07-01T11:30:51.864480,13.17650585,.00019745,87.9131,3.0218,86.5435,273.5922,0,U,55173,999,16946,.21123394E-3,.95E-6,0
ONEWEB-0711,2023-004AL,2026-07-01T12:27:48.922272,13.11418045,.00023212,87.8880,18.2129,72.9653,287.1729,0,U,55174,999,16771,.55459695E-3,.209E-5,0
ONEWEB-0713,2023-004AM,2026-07-01T11:04:48.667296,13.11415217,.0002064,87.8881,18.2260,79.5527,280.5834,0,U,55175,999,16769,.10612341E-2,.389E-5,0
ONEWEB-0715,2023-004AN,2026-07-01T10:57:28.965600,13.11415396,.00023859,87.8881,18.2277,98.7582,261.3817,0,U,55176,999,16773,.14791835E-2,.537E-5,0
ONEWEB-0716,2023-004AP,2026-07-01T11:21:08.545248,13.17650741,.00016582,87.9131,3.0259,94.1290,266.0031,0,U,55177,999,16946,.16033244E-3,.75E-6,0
ONEWEB-0717,2023-004AQ,2026-07-01T10:56:52.152288,13.17649271,.00023473,87.9144,3.0183,81.9532,278.1866,0,U,55178,999,16951,.10800395E-3,.55E-6,0
ONEWEB-0719,2023-004AR,2026-07-01T11:11:26.820096,13.17650045,.00016761,87.9141,2.9966,88.5706,271.5618,0,U,55179,999,16946,.55195937E-4,.34E-6,0
ONEWEB-0530,2023-029A,2026-07-01T06:09:17.572032,13.20772193,.00021029,87.9185,271.6643,87.2384,272.8990,0,U,55796,999,16300,.25419677E-3,.116E-5,0
